STARLINK-11272 [DTC]    
1 60723U 24152D   26081.61331739 -.00003938  00000+0 -27698-4 0  9992
2 60723  53.1599  52.6385 0000947  94.3488 265.7639 15.69683774 90864
STARLINK-11261 [DTC]    
1 60724U 24152E   26081.93653986 -.00000262  00000+0  26950-5 0  9996
2 60724  53.1588  51.1003 0000954  89.4057 270.7070 15.69730033 90911
STARLINK-11263 [DTC]    
1 60725U 24152F   26081.92676029 -.00004915  00000+0 -35758-4 0  9994
2 60725  53.1578  51.0367 0001226  58.3857 301.7280 15.69690030 90919
STARLINK-11235 [DTC]    
1 60726U 24152G   26081.22149560 -.00011526  00000+0 -90613-4 0  9990
2 60726  53.1589  54.4570 0001389  78.9391 281.1783 15.69655074 90936
STARLINK-11080 [DTC]    
1 60727U 24152H   26081.91692965 -.00002654  00000+0 -17059-4 0  9994
2 60727  53.1593  50.9704 0001009  96.4481 263.6652 15.69701029 91041
STARLINK-11249 [DTC]    
1 60728U 24152J   26081.21170230 -.00008113  00000+0 -62333-4 0  9995
2 60728  53.1594  54.3930 0001166  99.7424 260.3725 15.69649076 90800
STARLINK-11146 [DTC]    
1 60729U 24152K   26081.20679087 -.00006050  00000+0 -45224-4 0  9997
2 60729  53.1598  54.3443 0001024  82.6901 277.4233 15.69652840 90938
STARLINK-11255 [DTC]    
1 60730U 24152L   26081.90221894 -.00006430  00000+0 -48328-4 0  9995
2 60730  53.1583  50.8709 0000973 234.2273 125.8654 15.69675533 90925
STARLINK-11254 [DTC]    
1 60731U 24152M   26081.89731040 -.00006648  00000+0 -50116-4 0  9992
2 60731  53.1589  50.8387 0000574 104.5158 255.5924 15.69685745 90929
STARLINK-11266 [DTC]    
1 60732U 24152N   26081.89241797 -.00004565  00000+0 -32883-4 0  9995
2 60732  53.1600  50.7957 0001024 228.6289 131.4641 15.69684797 90913
STARLINK-32253          
1 60733U 24152P   26081.82953897  .00000854  00000+0  40963-4 0  9993
2 60733  53.1602 207.3110 0001207  82.6653 277.4485 15.30192869 88818
STARLINK-32179          
1 60734U 24152Q   26081.54517683 -.00013185  00000+0 -43415-3 0  9999
2 60734  53.1614 209.1029 0001133 104.4778 255.6349 15.30175635 88684
STARLINK-32272          
1 60735U 24152R   26081.91668981  .00473770  97922-4  13887-2 0  9990
2 60735  53.1367 190.4023 0017775 323.5489 114.0388 15.91931143  5993
STARLINK-32289          
1 60737U 24152T   26081.72846392 -.00001778  00000+0 -47943-4 0  9990
2 60737  53.1599 208.1124 0000831 114.5929 245.5159 15.30186127 88841
STARLINK-32304          
1 60738U 24152U   26081.72530416 -.00005183  00000+0 -16314-3 0  9999
2 60738  53.1585 208.0901 0001495 104.4054 255.7113 15.30170783 88847
STARLINK-32235          
1 60739U 24152V   26081.72210871  .00002241  00000+0  87727-4 0  9997
2 60739  53.1585 208.0695 0001178 115.4961 244.6162 15.30216753 88798
