[{"OBJECT_NAME":"STARLINK-11272 [DTC]","OBJECT_ID":"2024-152D","EPOCH":"2026-03-22T14:43:10.622496","MEAN_MOTION":15.69683774,"ECCENTRICITY":9.472e-5,"INCLINATION":53.1599,"RA_OF_ASC_NODE":52.6385,"ARG_OF_PERICENTER":94.3488,"MEAN_ANOMALY":265.7639,"EPHEMERIS_TYPE":0,"CLASSIFICATION_TYPE":"U","NORAD_CAT_ID":60723,"ELEMENT_SET_NO":999,"REV_AT_EPOCH":9086,"BSTAR":-2.7697749e-5,"MEAN_MOTION_DOT":-3.938e-5,"MEAN_MOTION_DDOT":0},{"OBJECT_NAME":"STARLINK-11261 [DTC]","OBJECT_ID":"2024-152E","EPOCH":"2026-03-22T22:28:37.043904","MEAN_MOTION":15.69730033,"ECCENTRICITY":9.547e-5,"INCLINATION":53.1588,"RA_OF_ASC_NODE":51.1003,"ARG_OF_PERICENTER":89.4057,"MEAN_ANOMALY":270.707,"EPHEMERIS_TYPE":0,"CLASSIFICATION_TYPE":"U","NORAD_CAT_ID":60724,"ELEMENT_SET_NO":999,"REV_AT_EPOCH":9091,"BSTAR":2.694992e-6,"MEAN_MOTION_DOT":-2.62e-6,"MEAN_MOTION_DDOT":0},{"OBJECT_NAME":"STARLINK-11263 [DTC]","OBJECT_ID":"2024-152F","EPOCH":"2026-03-22T22:14:32.089056","MEAN_MOTION":15.6969003,"ECCENTRICITY":0.0001226,"INCLINATION":53.1578,"RA_OF_ASC_NODE":51.0367,"ARG_OF_PERICENTER":58.3857,"MEAN_ANOMALY":301.728,"EPHEMERIS_TYPE":0,"CLASSIFICATION_TYPE":"U","NORAD_CAT_ID":60725,"ELEMENT_SET_NO":999,"REV_AT_EPOCH":9091,"BSTAR":-3.5758471e-5,"MEAN_MOTION_DOT":-4.915e-5,"MEAN_MOTION_DDOT":0},{"OBJECT_NAME":"STARLINK-11235 [DTC]","OBJECT_ID":"2024-152G","EPOCH":"2026-03-22T05:18:57.219840","MEAN_MOTION":15.69655074,"ECCENTRICITY":0.00013894,"INCLINATION":53.1589,"RA_OF_ASC_NODE":54.457,"ARG_OF_PERICENTER":78.9391,"MEAN_ANOMALY":281.1783,"EPHEMERIS_TYPE":0,"CLASSIFICATION_TYPE":"U","NORAD_CAT_ID":60726,"ELEMENT_SET_NO":999,"REV_AT_EPOCH":9093,"BSTAR":-9.0612777e-5,"MEAN_MOTION_DOT":-0.00011526,"MEAN_MOTION_DDOT":0},{"OBJECT_NAME":"STARLINK-11080 [DTC]","OBJECT_ID":"2024-152H","EPOCH":"2026-03-22T22:00:22.721760","MEAN_MOTION":15.69701029,"ECCENTRICITY":0.00010092,"INCLINATION":53.1593,"RA_OF_ASC_NODE":50.9704,"ARG_OF_PERICENTER":96.4481,"MEAN_ANOMALY":263.6652,"EPHEMERIS_TYPE":0,"CLASSIFICATION_TYPE":"U","NORAD_CAT_ID":60727,"ELEMENT_SET_NO":999,"REV_AT_EPOCH":9104,"BSTAR":-1.705889e-5,"MEAN_MOTION_DOT":-2.654e-5,"MEAN_MOTION_DDOT":0},{"OBJECT_NAME":"STARLINK-11249 [DTC]","OBJECT_ID":"2024-152J","EPOCH":"2026-03-22T05:04:51.078720","MEAN_MOTION":15.69649076,"ECCENTRICITY":0.00011663,"INCLINATION":53.1594,"RA_OF_ASC_NODE":54.393,"ARG_OF_PERICENTER":99.7424,"MEAN_ANOMALY":260.3725,"EPHEMERIS_TYPE":0,"CLASSIFICATION_TYPE":"U","NORAD_CAT_ID":60728,"ELEMENT_SET_NO":999,"REV_AT_EPOCH":9080,"BSTAR":-6.2333307e-5,"MEAN_MOTION_DOT":-8.113e-5,"MEAN_MOTION_DDOT":0},{"OBJECT_NAME":"STARLINK-11146 [DTC]","OBJECT_ID":"2024-152K","EPOCH":"2026-03-22T04:57:46.731168","MEAN_MOTION":15.6965284,"ECCENTRICITY":0.00010246,"INCLINATION":53.1598,"RA_OF_ASC_NODE":54.3443,"ARG_OF_PERICENTER":82.6901,"MEAN_ANOMALY":277.4233,"EPHEMERIS_TYPE":0,"CLASSIFICATION_TYPE":"U","NORAD_CAT_ID":60729,"ELEMENT_SET_NO":999,"REV_AT_EPOCH":9093,"BSTAR":-4.522391e-5,"MEAN_MOTION_DOT":-6.05e-5,"MEAN_MOTION_DDOT":0},{"OBJECT_NAME":"STARLINK-11255 [DTC]","OBJECT_ID":"2024-152L","EPOCH":"2026-03-22T21:39:11.716416","MEAN_MOTION":15.69675533,"ECCENTRICITY":9.735e-5,"INCLINATION":53.1583,"RA_OF_ASC_NODE":50.8709,"ARG_OF_PERICENTER":234.2273,"MEAN_ANOMALY":125.8654,"EPHEMERIS_TYPE":0,"CLASSIFICATION_TYPE":"U","NORAD_CAT_ID":60730,"ELEMENT_SET_NO":999,"REV_AT_EPOCH":9092,"BSTAR":-4.8327902e-5,"MEAN_MOTION_DOT":-6.43e-5,"MEAN_MOTION_DDOT":0},{"OBJECT_NAME":"STARLINK-11254 [DTC]","OBJECT_ID":"2024-152M","EPOCH":"2026-03-22T21:32:07.618560","MEAN_MOTION":15.69685745,"ECCENTRICITY":5.74e-5,"INCLINATION":53.1589,"RA_OF_ASC_NODE":50.8387,"ARG_OF_PERICENTER":104.5158,"MEAN_ANOMALY":255.5924,"EPHEMERIS_TYPE":0,"CLASSIFICATION_TYPE":"U","NORAD_CAT_ID":60731,"ELEMENT_SET_NO":999,"REV_AT_EPOCH":9092,"BSTAR":-5.0116314e-5,"MEAN_MOTION_DOT":-6.648e-5,"MEAN_MOTION_DDOT":0},{"OBJECT_NAME":"STARLINK-11266 [DTC]","OBJECT_ID":"2024-152N","EPOCH":"2026-03-22T21:25:04.912608","MEAN_MOTION":15.69684797,"ECCENTRICITY":0.00010244,"INCLINATION":53.16,"RA_OF_ASC_NODE":50.7957,"ARG_OF_PERICENTER":228.6289,"MEAN_ANOMALY":131.4641,"EPHEMERIS_TYPE":0,"CLASSIFICATION_TYPE":"U","NORAD_CAT_ID":60732,"ELEMENT_SET_NO":999,"REV_AT_EPOCH":9091,"BSTAR":-3.2882527e-5,"MEAN_MOTION_DOT":-4.565e-5,"MEAN_MOTION_DDOT":0},{"OBJECT_NAME":"STARLINK-32253","OBJECT_ID":"2024-152P","EPOCH":"2026-03-22T19:54:32.167008","MEAN_MOTION":15.30192869,"ECCENTRICITY":0.00012073,"INCLINATION":53.1602,"RA_OF_ASC_NODE":207.311,"ARG_OF_PERICENTER":82.6653,"MEAN_ANOMALY":277.4485,"EPHEMERIS_TYPE":0,"CLASSIFICATION_TYPE":"U","NORAD_CAT_ID":60733,"ELEMENT_SET_NO":999,"REV_AT_EPOCH":8881,"BSTAR":4.0963329e-5,"MEAN_MOTION_DOT":8.54e-6,"MEAN_MOTION_DDOT":0},{"OBJECT_NAME":"STARLINK-32179","OBJECT_ID":"2024-152Q","EPOCH":"2026-03-22T13:05:03.278112","MEAN_MOTION":15.30175635,"ECCENTRICITY":0.00011339,"INCLINATION":53.1614,"RA_OF_ASC_NODE":209.1029,"ARG_OF_PERICENTER":104.4778,"MEAN_ANOMALY":255.6349,"EPHEMERIS_TYPE":0,"CLASSIFICATION_TYPE":"U","NORAD_CAT_ID":60734,"ELEMENT_SET_NO":999,"REV_AT_EPOCH":8868,"BSTAR":-0.00043415101,"MEAN_MOTION_DOT":-0.00013185,"MEAN_MOTION_DDOT":0},{"OBJECT_NAME":"STARLINK-32272","OBJECT_ID":"2024-152R","EPOCH":"2026-03-22T22:00:01.999584","MEAN_MOTION":15.91931143,"ECCENTRICITY":0.00177751,"INCLINATION":53.1367,"RA_OF_ASC_NODE":190.4023,"ARG_OF_PERICENTER":323.5489,"MEAN_ANOMALY":114.0388,"EPHEMERIS_TYPE":0,"CLASSIFICATION_TYPE":"U","NORAD_CAT_ID":60735,"ELEMENT_SET_NO":999,"REV_AT_EPOCH":599,"BSTAR":0.0013887413,"MEAN_MOTION_DOT":0.0047377,"MEAN_MOTION_DDOT":9.7921878e-5},{"OBJECT_NAME":"STARLINK-32289","OBJECT_ID":"2024-152T","EPOCH":"2026-03-22T17:28:59.282688","MEAN_MOTION":15.30186127,"ECCENTRICITY":8.315e-5,"INCLINATION":53.1599,"RA_OF_ASC_NODE":208.1124,"ARG_OF_PERICENTER":114.5929,"MEAN_ANOMALY":245.5159,"EPHEMERIS_TYPE":0,"CLASSIFICATION_TYPE":"U","NORAD_CAT_ID":60737,"ELEMENT_SET_NO":999,"REV_AT_EPOCH":8884,"BSTAR":-4.7942759e-5,"MEAN_MOTION_DOT":-1.778e-5,"MEAN_MOTION_DDOT":0},{"OBJECT_NAME":"STARLINK-32304","OBJECT_ID":"2024-152U","EPOCH":"2026-03-22T17:24:26.279424","MEAN_MOTION":15.30170783,"ECCENTRICITY":0.00014952,"INCLINATION":53.1585,"RA_OF_ASC_NODE":208.0901,"ARG_OF_PERICENTER":104.4054,"MEAN_ANOMALY":255.7113,"EPHEMERIS_TYPE":0,"CLASSIFICATION_TYPE":"U","NORAD_CAT_ID":60738,"ELEMENT_SET_NO":999,"REV_AT_EPOCH":8884,"BSTAR":-0.00016314175,"MEAN_MOTION_DOT":-5.183e-5,"MEAN_MOTION_DDOT":0},{"OBJECT_NAME":"STARLINK-32235","OBJECT_ID":"2024-152V","EPOCH":"2026-03-22T17:19:50.192544","MEAN_MOTION":15.30216753,"ECCENTRICITY":0.00011785,"INCLINATION":53.1585,"RA_OF_ASC_NODE":208.0695,"ARG_OF_PERICENTER":115.4961,"MEAN_ANOMALY":244.6162,"EPHEMERIS_TYPE":0,"CLASSIFICATION_TYPE":"U","NORAD_CAT_ID":60739,"ELEMENT_SET_NO":999,"REV_AT_EPOCH":8879,"BSTAR":8.7726641e-5,"MEAN_MOTION_DOT":2.241e-5,"MEAN_MOTION_DDOT":0}]
